EUTELSAT 139 WEST A     
1 28187U 04008A   26007.71318906  .00000103  00000+0  00000+0 0  9990
2 28187   5.4242  73.9506 0001604 257.1379 253.7169  1.00273014 79748
EUTELSAT 174A           
1 28924U 05052A   26007.84648322  .00000011  00000+0  00000+0 0  9999
2 28924   3.8139  78.5413 0006171 212.8783 294.7038  1.00273382 50728
EUTELSAT 33F            
1 29270U 06032A   26007.92405912  .00000159  00000+0  00000+0 0  9991
2 29270   1.2490  84.1249 0003648 205.4595 183.6371  1.00268853 45705
EUTELSAT HOTBIRD 13C    
1 33459U 08065A   26007.87343671 -.00000280  00000+0  00000+0 0  9996
2 33459   2.5396  81.1294 0003225 208.7500  81.6495  1.00273844 45731
EUTELSAT 36B            
1 36101U 09065A   26007.91850419  .00000116  00000+0  00000+0 0  9999
2 36101   0.0901  62.6534 0005616 225.1993 200.7623  1.00271128 59105
EUTELSAT KA-SAT 9A      
1 37258U 10069A   26007.90114127  .00000065  00000+0  00000+0 0  9990
2 37258   0.0498 341.7478 0001680 197.6191 261.5049  1.00269672 42401
EUTELSAT 7 WEST A       
1 37816U 11051A   26007.88193009 -.00000057  00000+0  00000+0 0  9997
2 37816   0.0642 345.4561 0004811 250.9733 181.1930  1.00271854 52266
EUTELSAT 16A            
1 37836U 11057A   26007.90114127  .00000107  00000+0  00000+0 0  9997
2 37836   0.0601  22.8193 0005547 266.2011 158.8298  1.00271441  5725
